#aV2008  4 22  0  0   .00000000      96 DD+AD WGS84 FIT  NGA
## 1476 172800.00000000   900.00000000 54578  .0000000000000
+   31     2  3  4  5  6  7  8  9 10 11 12 13 14 15 16 17 18
+         19 20 21 22 23 24 25 26 27 28 29 30 31 32  0  0  0
+          0  0  0  0  0  0  0  0  0  0  0  0  0  0  0  0  0
+          0  0  0  0  0  0  0  0  0  0  0  0  0  0  0  0  0
+          0  0  0  0  0  0  0  0  0  0  0  0  0  0  0  0  0
++         0  0  0  0  0  0  0  0  0  0  0  0  0  0  0  0  0
++         0  0  0  0  0  0  0  0  0  0  0  0  0  0  0  0  0
++         0  0  0  0  0  0  0  0  0  0  0  0  0  0  0  0  0
++         0  0  0  0  0  0  0  0  0  0  0  0  0  0  0  0  0
++         0  0  0  0  0  0  0  0  0  0  0  0  0  0  0  0  0
%c cc cc ccc ccc cccc cccc cccc cccc ccccc ccccc ccccc ccccc
%c cc cc ccc ccc cccc cccc cccc cccc ccccc ccccc ccccc ccccc
%f  0.0000000  0.000000000  0.00000000000  0.000000000000000
%f  0.0000000  0.000000000  0.00000000000  0.000000000000000
%i    0    0    0    0      0      0      0      0         0
%i    0    0    0    0      0      0      0      0         0
/*      NGA, ST. LOUIS,MO.                                  
/*   EPHEMERIS COMPUTED FROM  3 DAYS OF DATA                
/* CCCCCCCCCCCCCCCCCCCCCCCCCCCCCCCCCCCCCCCCCCCCCCCCCCCCCCCCC
/* CCCCCCCCCCCCCCCCCCCCCCCCCCCCCCCCCCCCCCCCCCCCCCCCCCCCCCCCC
*  2008  4 22  7 15   .00000000                                                 
P  2 -13414.613251 -11833.333041 -19903.276692    192.714609                    
V  2   3304.113619 -24670.657372  12201.280579       .032260                    
P  3  24336.956409  10139.741330   4260.177265    217.795432                    
V  3   3187.447837   5912.247302 -30115.323576       .053679                    
P  4  -7518.541585 -21477.398833 -13491.006248    -51.354711                    
V  4   4676.138892 -16751.426835  24594.885640      -.079696                    
P  5 -20045.490368  16355.120590  -5926.461684    755.323623                    
V  5  -7959.285674    648.923246  30205.870591       .088990                    
P  6  16917.050637  18574.018924  -8433.842027    107.292001                    
V  6 -11070.408576  -3165.596103 -28606.070507       .112212                    
P  7   7956.352540 -24018.567297  -7995.458551    -63.128041                    
V  7   1633.947721  10345.387978 -29601.834004       .111931                    
P  8    289.833874 -25742.562111   5337.761143   -149.922152                    
V  8   3455.499590  -6517.642364 -31585.392293      -.014586                    
P  9 -13477.742838  12362.681322  18576.167331    121.099127                    
V  9      2.669442 -24983.320697  16256.308751       .016772                    
P 10 -22364.751584  -1560.345456 -14630.113861      -.864483                    
V 10  16073.945528  -8726.977123 -23539.766153      -.003689                    
P 11  12449.673849 -15698.349356  17135.839870     26.187722                    
V 11   4995.335147  22081.392543  16784.257725      -.002208                    
P 12 -23585.793552  11967.386553  -1719.396007   -359.079239                    
V 12  -3259.321442  -1623.532035  31768.338290      -.001444                    
P 13   3685.476399 -15020.812611 -21712.868454    251.790522                    
V 13  21595.114628  16535.848893  -7789.583644       .018786                    
P 14  12200.521211  19901.427591  12857.430862   -274.762561                    
V 14 -13686.981002  -8574.578893  26369.419267       .040392                    
P 15 -22208.378107  -3337.057857  14207.973454   -100.633531                    
V 15 -13496.981896 -12125.576524 -23972.170063      -.051131                    
P 16  19135.482987   5099.978230 -17716.234487    127.731887                    
V 16 -20124.391318  10311.625656 -18495.455146      -.012496                    
P 17 -12249.233120 -19994.380886  12664.631451     39.626777                    
V 17  14172.595672   7672.046126  25737.698749      -.003714                    
P 18 -10912.090876  17469.772277  16743.622097   -185.029395                    
V 18 -20370.222230   5965.998809 -20057.603890       .035438                    
P 19  21666.423642   4213.749464  14988.937946     27.951717                    
V 19  13248.869650  13508.969378 -22905.744361       .010083                    
P 20  22423.859220 -13689.444949  -3844.716870    115.967015                    
V 20   5673.735946    872.075532  30982.672318      -.008137                    
P 21  -4893.373409  25646.888011  -2312.224301     66.360769                    
V 21  -3671.079886  -3688.610918 -31425.626015      -.010211                    
P 22   3870.770226  15221.538901  21567.762901    210.687982                    
V 22 -25234.019839   9857.345467  -2492.652381       .004397                    
P 23  15887.827767  -5881.627731 -20585.891810    349.198253                    
V 23  20559.253988  15747.741423  11173.413360       .023739                    
P 24 -12800.745891  18678.705636 -13937.015744     88.252240                    
V 24    484.652284 -18015.169846 -24018.996560       .028845                    
P 25   9667.120371 -20331.483032 -13868.410360    -97.533520                    
V 25   2020.925381  18154.047888 -24393.043481      -.287520                    
P 26 -22595.733175  -8463.959746  11226.174820    237.088070                    
V 26 -10828.674671 -10112.991829 -27678.635187       .085135                    
P 27   4234.410875 -25562.982430  -4781.178237    183.099459                    
V 27   2458.520161   7037.872633 -31259.581642       .026661                    
P 28  -1746.181752 -15662.534747  21722.324544    -18.114529                    
V 28  24845.789804  -9854.419352  -5532.158837      -.003936                    
P 29  -7353.756613  13394.176900 -21606.667612    -43.783692                    
V 29 -22347.067489 -16406.918835  -2524.174184       .004913                    
P 30 -15726.174982  17726.503013 -12225.522984     73.074138                    
V 30 -14656.300621   4397.677932  26042.678749       .015961                    
P 31   8203.162131  20393.069548 -14625.318407    -17.340695                    
V 31  -3830.286794  18684.607865  23676.879917      -.013152                    
P 32  21840.939202   3223.358443  15087.188571    273.411334                    
V 32 -16759.142792   7911.169207  23402.962889       .063123                    
EOF
